{
  "type": "FeatureCollection",
  "features": [
    {
      "type": "Feature",
      "properties": {
        "norad_id": 39160,
        "name": "VNREDSAT 1",
        "group": "resource",
        "lat": 65.33241560083579,
        "lon": -123.22772058146647,
        "alt_km": 670.2056640518222,
        "timestamp": "2025-12-09T16:56:36.237079+00:00",
        "meta_object_name": "VNREDSAT 1",
        "meta_object_id": "2013-021B",
        "meta_epoch": "2025-12-09T11:30:35.394048",
        "meta_mean_motion": 14.64916651,
        "meta_eccentricity": 0.000134,
        "meta_inclination": 97.9373,
        "meta_ra_of_asc_node": 38.8687,
        "meta_arg_of_pericenter": 77.884,
        "meta_mean_anomaly": 282.2514,
        "meta_ephemeris_type": 0,
        "meta_classification_type": "U",
        "meta_norad_cat_id": 39160,
        "meta_element_set_no": 999,
        "meta_rev_at_epoch": 67251,
        "meta_bstar": 0.00027596,
        "meta_mean_motion_dot": 1.43e-05,
        "meta_mean_motion_ddot": 0,
        "tle_line1": "1 39160U 13021B   25343.47957632  .00001430  00000+0  27596-3 0  9995",
        "tle_line2": "2 39160  97.9373  38.8687 0001340  77.8840 282.2514 14.64916651672519"
      },
      "geometry": {
        "type": "Point",
        "coordinates": [
          -123.22772058146647,
          65.33241560083579
        ]
      }
    },
    {
      "type": "Feature",
      "properties": {
        "norad_id": 39227,
        "name": "ARIRANG-5 (KOMPSAT-5)",
        "group": "resource",
        "lat": 58.81713940272235,
        "lon": 0.8232916804817206,
        "alt_km": 545.9754059456727,
        "timestamp": "2025-12-09T16:56:36.237089+00:00",
        "meta_object_name": "ARIRANG-5 (KOMPSAT-5)",
        "meta_object_id": "2013-042A",
        "meta_epoch": "2025-12-09T11:37:20.265312",
        "meta_mean_motion": 15.04481993,
        "meta_eccentricity": 0.0003883,
        "meta_inclination": 97.6143,
        "meta_ra_of_asc_node": 167.8349,
        "meta_arg_of_pericenter": 63.8692,
        "meta_mean_anomaly": 296.2933,
        "meta_ephemeris_type": 0,
        "meta_classification_type": "U",
        "meta_norad_cat_id": 39227,
        "meta_element_set_no": 999,
        "meta_rev_at_epoch": 67533,
        "meta_bstar": 6.3178e-05,
        "meta_mean_motion_dot": 8.23e-06,
        "meta_mean_motion_ddot": 0,
        "tle_line1": "1 39227U 13042A   25343.48426233  .00000823  00000+0  63178-4 0  9993",
        "tle_line2": "2 39227  97.6143 167.8349 0003883  63.8692 296.2933 15.04481993675331"
      },
      "geometry": {
        "type": "Point",
        "coordinates": [
          0.8232916804817206,
          58.81713940272235
        ]
      }
    },
    {
      "type": "Feature",
      "properties": {
        "norad_id": 39418,
        "name": "SKYSAT-A",
        "group": "resource",
        "lat": 55.299472957463905,
        "lon": 23.17197037615902,
        "alt_km": 540.1966240071006,
        "timestamp": "2025-12-09T16:56:36.237100+00:00",
        "meta_object_name": "SKYSAT-A",
        "meta_object_id": "2013-066C",
        "meta_epoch": "2025-12-09T10:20:26.482848",
        "meta_mean_motion": 15.11564532,
        "meta_eccentricity": 0.0020713,
        "meta_inclination": 97.4109,
        "meta_ra_of_asc_node": 33.7397,
        "meta_arg_of_pericenter": 248.9983,
        "meta_mean_anomaly": 110.9031,
        "meta_ephemeris_type": 0,
        "meta_classification_type": "U",
        "meta_norad_cat_id": 39418,
        "meta_element_set_no": 999,
        "meta_rev_at_epoch": 65980,
        "meta_bstar": 0.00036654,
        "meta_mean_motion_dot": 6.186e-05,
        "meta_mean_motion_ddot": 0,
        "tle_line1": "1 39418U 13066C   25343.43086207  .00006186  00000+0  36654-3 0  9995",
        "tle_line2": "2 39418  97.4109  33.7397 0020713 248.9983 110.9031 15.11564532659801"
      },
      "geometry": {
        "type": "Point",
        "coordinates": [
          23.17197037615902,
          55.299472957463905
        ]
      }
    },
    {
      "type": "Feature",
      "properties": {
        "norad_id": 39419,
        "name": "DUBAISAT-2",
        "group": "resource",
        "lat": -52.83357076564319,
        "lon": 144.27468109866427,
        "alt_km": 549.5308557299904,
        "timestamp": "2025-12-09T16:56:36.237110+00:00",
        "meta_object_name": "DUBAISAT-2",
        "meta_object_id": "2013-066D",
        "meta_epoch": "2025-12-09T12:43:35.282208",
        "meta_mean_motion": 15.08306658,
        "meta_eccentricity": 0.0010995,
        "meta_inclination": 97.4447,
        "meta_ra_of_asc_node": 334.0365,
        "meta_arg_of_pericenter": 332.7204,
        "meta_mean_anomaly": 27.3446,
        "meta_ephemeris_type": 0,
        "meta_classification_type": "U",
        "meta_norad_cat_id": 39419,
        "meta_element_set_no": 999,
        "meta_rev_at_epoch": 65778,
        "meta_bstar": 0.00045677,
        "meta_mean_motion_dot": 7.036e-05,
        "meta_mean_motion_ddot": 0,
        "tle_line1": "1 39419U 13066D   25343.53026947  .00007036  00000+0  45677-3 0  9992",
        "tle_line2": "2 39419  97.4447 334.0365 0010995 332.7204  27.3446 15.08306658657783"
      },
      "geometry": {
        "type": "Point",
        "coordinates": [
          144.27468109866427,
          -52.83357076564319
        ]
      }
    },
    {
      "type": "Feature",
      "properties": {
        "norad_id": 39574,
        "name": "GPM-CORE",
        "group": "resource",
        "lat": -33.5694534882008,
        "lon": -155.21928674384887,
        "alt_km": 430.92273345876765,
        "timestamp": "2025-12-09T16:56:36.237121+00:00",
        "meta_object_name": "GPM-CORE",
        "meta_object_id": "2014-009C",
        "meta_epoch": "2025-12-09T09:20:25.092384",
        "meta_mean_motion": 15.45442033,
        "meta_eccentricity": 0.0010516,
        "meta_inclination": 64.9737,
        "meta_ra_of_asc_node": 223.9046,
        "meta_arg_of_pericenter": 269.9223,
        "meta_mean_anomaly": 90.0712,
        "meta_ephemeris_type": 0,
        "meta_classification_type": "U",
        "meta_norad_cat_id": 39574,
        "meta_element_set_no": 999,
        "meta_rev_at_epoch": 66849,
        "meta_bstar": 0.00039282,
        "meta_mean_motion_dot": 0.00018741,
        "meta_mean_motion_ddot": 0,
        "tle_line1": "1 39574U 14009C   25343.38917931  .00018741  00000+0  39282-3 0  9997",
        "tle_line2": "2 39574  64.9737 223.9046 0010516 269.9223  90.0712 15.45442033668491"
      },
      "geometry": {
        "type": "Point",
        "coordinates": [
          -155.21928674384887,
          -33.5694534882008
        ]
      }
    },
    {
      "type": "Feature",
      "properties": {
        "norad_id": 39634,
        "name": "SENTINEL-1A",
        "group": "resource",
        "lat": 36.151405105726994,
        "lon": -17.040356933331672,
        "alt_km": 692.6240191910683,
        "timestamp": "2025-12-09T16:56:36.237132+00:00",
        "meta_object_name": "SENTINEL-1A",
        "meta_object_id": "2014-016A",
        "meta_epoch": "2025-12-09T11:50:21.051744",
        "meta_mean_motion": 14.59201485,
        "meta_eccentricity": 0.0001257,
        "meta_inclination": 98.1799,
        "meta_ra_of_asc_node": 348.7823,
        "meta_arg_of_pericenter": 83.2662,
        "meta_mean_anomaly": 276.8681,
        "meta_ephemeris_type": 0,
        "meta_classification_type": "U",
        "meta_norad_cat_id": 39634,
        "meta_element_set_no": 999,
        "meta_rev_at_epoch": 62235,
        "meta_bstar": 0.00011952,
        "meta_mean_motion_dot": 5.18e-06,
        "meta_mean_motion_ddot": 0,
        "tle_line1": "1 39634U 14016A   25343.49329921  .00000518  00000+0  11952-3 0  9997",
        "tle_line2": "2 39634  98.1799 348.7823 0001257  83.2662 276.8681 14.59201485622352"
      },
      "geometry": {
        "type": "Point",
        "coordinates": [
          -17.040356933331672,
          36.151405105726994
        ]
      }
    },
    {
      "type": "Feature",
      "properties": {
        "norad_id": 39731,
        "name": "KAZEOSAT 1",
        "group": "resource",
        "lat": -18.007413713557103,
        "lon": -127.05292376309383,
        "alt_km": 756.8716057417378,
        "timestamp": "2025-12-09T16:56:36.237142+00:00",
        "meta_object_name": "KAZEOSAT 1",
        "meta_object_id": "2014-024A",
        "meta_epoch": "2025-12-09T11:01:55.183872",
        "meta_mean_motion": 14.42060191,
        "meta_eccentricity": 0.0001089,
        "meta_inclination": 98.3434,
        "meta_ra_of_asc_node": 55.4406,
        "meta_arg_of_pericenter": 94.04,
        "meta_mean_anomaly": 266.0914,
        "meta_ephemeris_type": 0,
        "meta_classification_type": "U",
        "meta_norad_cat_id": 39731,
        "meta_element_set_no": 999,
        "meta_rev_at_epoch": 61121,
        "meta_bstar": 0.00018178,
        "meta_mean_motion_dot": 5.54e-06,
        "meta_mean_motion_ddot": 0,
        "tle_line1": "1 39731U 14024A   25343.45966648  .00000554  00000+0  18178-3 0  9990",
        "tle_line2": "2 39731  98.3434  55.4406 0001089  94.0400 266.0914 14.42060191611212"
      },
      "geometry": {
        "type": "Point",
        "coordinates": [
          -127.05292376309383,
          -18.007413713557103
        ]
      }
    }
  ]
}